start=new Date('2022-04-04T00:00:00.000Z').valueOf();
sats=[{"ECCENTRICITY":"0.00016310","BSTAR":"0.00323260000000","SEMIMAJOR_AXIS":"6925.442","SITE":"AFETR","REV_AT_EPOCH":"360","MEAN_ANOMALY":"325.6595","PERIOD":"95.594","OBJECT_NAME":"STARLINK-1974","COUNTRY_CODE":"US","MEAN_MOTION_DDOT":"0.0000000000000","CLASSIFICATION_TYPE":"U","ARG_OF_PERICENTER":"63.3941","DECAY_DATE":null,"ELEMENT_SET_NO":"999","PERIAPSIS":"546.178","MEAN_ELEMENT_THEORY":"SGP4","MEAN_MOTION":"15.06369487","EPOCH":"2022-04-03T22:00:00.999936","INCLINATION":"53.0543","TLE_LINE2":"2 47629  53.0543 277.0493 0001631  63.3941 325.6595 15.06369487  3602","LAUNCH_DATE":"2021-02-16","TLE_LINE1":"1 47629U 21012K   22093.91667824  .00048158  00000-0  32326-2 0  9997","OBJECT_ID":"2021-012K","MEAN_MOTION_DOT":"0.00048158","CENTER_NAME":"EARTH","OBJECT_TYPE":"PAYLOAD","FILE":"3386965","RCS_SIZE":"LARGE","REF_FRAME":"TEME","GP_ID":"200379770","RA_OF_ASC_NODE":"277.0493","TIME_SYSTEM":"UTC","EPHEMERIS_TYPE":"0","NORAD_CAT_ID":"47629","APOAPSIS":"548.437"},{"REV_AT_EPOCH":"6383","SITE":"AFETR","SEMIMAJOR_AXIS":"6925.394","BSTAR":"-0.00013754000000","ECCENTRICITY":"0.00017030","CLASSIFICATION_TYPE":"U","ARG_OF_PERICENTER":"44.6692","COUNTRY_CODE":"US","MEAN_MOTION_DDOT":"0.0000000000000","MEAN_ANOMALY":"315.4434","PERIOD":"95.593","OBJECT_NAME":"STARLINK-1983","OBJECT_ID":"2021-012L","MEAN_MOTION_DOT":"-0.00002329","TLE_LINE1":"1 47630U 21012L   22093.86062610 -.00002329  00000-0 -13754-3 0  9992","MEAN_ELEMENT_THEORY":"SGP4","PERIAPSIS":"546.079","MEAN_MOTION":"15.06385279","EPOCH":"2022-04-03T20:39:18.095040","LAUNCH_DATE":"2021-02-16","TLE_LINE2":"2 47630  53.0568  17.3141 0001703  44.6692 315.4434 15.06385279 63838","INCLINATION":"53.0568","ELEMENT_SET_NO":"999","DECAY_DATE":null,"EPHEMERIS_TYPE":"0","APOAPSIS":"548.438","NORAD_CAT_ID":"47630","RCS_SIZE":"LARGE","RA_OF_ASC_NODE":"17.3141","GP_ID":"200378518","REF_FRAME":"TEME","TIME_SYSTEM":"UTC","FILE":"3386965","OBJECT_TYPE":"PAYLOAD","CENTER_NAME":"EARTH"},{"ECCENTRICITY":"0.00016830","BSTAR":"0.00101750000000","SEMIMAJOR_AXIS":"6925.451","SITE":"AFETR","REV_AT_EPOCH":"6439","OBJECT_NAME":"STARLINK-1992","MEAN_ANOMALY":"237.8899","PERIOD":"95.594","MEAN_MOTION_DDOT":"0.0000000000000","COUNTRY_CODE":"US","ARG_OF_PERICENTER":"58.8099","CLASSIFICATION_TYPE":"U","ELEMENT_SET_NO":"999","DECAY_DATE":null,"PERIAPSIS":"546.151","MEAN_MOTION":"15.06366436","MEAN_ELEMENT_THEORY":"SGP4","INCLINATION":"53.0542","TLE_LINE2":"2 47632  53.0542 302.0669 0001683  58.8099 237.8899 15.06366436 64394","LAUNCH_DATE":"2021-02-16","EPOCH":"2022-04-03T22:00:00.999936","TLE_LINE1":"1 47632U 21012N   22093.91667824  .00014893  00000-0  10175-2 0  9998","MEAN_MOTION_DOT":"0.00014893","OBJECT_ID":"2021-012N","OBJECT_TYPE":"PAYLOAD","CENTER_NAME":"EARTH","FILE":"3386560","RCS_SIZE":"LARGE","TIME_SYSTEM":"UTC","GP_ID":"200349010","RA_OF_ASC_NODE":"302.0669","REF_FRAME":"TEME","NORAD_CAT_ID":"47632","APOAPSIS":"548.482","EPHEMERIS_TYPE":"0"},{"ECCENTRICITY":"0.00014750","BSTAR":"-0.00010307000000","SEMIMAJOR_AXIS":"6925.377","SITE":"AFETR","REV_AT_EPOCH":"6305","OBJECT_NAME":"STARLINK-2009","PERIOD":"95.593","MEAN_ANOMALY":"302.3136","MEAN_MOTION_DDOT":"0.0000000000000","COUNTRY_CODE":"US","ARG_OF_PERICENTER":"57.7996","CLASSIFICATION_TYPE":"U","DECAY_DATE":null,"ELEMENT_SET_NO":"999","TLE_LINE2":"2 47633  53.0552  37.5184 0001475  57.7996 302.3136 15.06390826 63055","INCLINATION":"53.0552","LAUNCH_DATE":"2021-02-16","EPOCH":"2022-04-03T19:29:00.593088","MEAN_ELEMENT_THEORY":"SGP4","PERIAPSIS":"546.220","MEAN_MOTION":"15.06390826","TLE_LINE1":"1 47633U 21012P   22093.81181242 -.00001816  00000-0 -10307-3 0  9994","MEAN_MOTION_DOT":"-0.00001816","OBJECT_ID":"2021-012P","CENTER_NAME":"EARTH","OBJECT_TYPE":"PAYLOAD","FILE":"3386567","TIME_SYSTEM":"UTC","REF_FRAME":"TEME","GP_ID":"200348521","RA_OF_ASC_NODE":"37.5184","RCS_SIZE":"LARGE","APOAPSIS":"548.263","NORAD_CAT_ID":"47633","EPHEMERIS_TYPE":"0"},{"OBJECT_ID":"2021-012Q","MEAN_MOTION_DOT":"-0.00001379","TLE_LINE1":"1 47634U 21012Q   22093.85605368 -.00001379  00000-0 -73731-4 0  9994","PERIAPSIS":"546.289","MEAN_ELEMENT_THEORY":"SGP4","MEAN_MOTION":"15.06380707","EPOCH":"2022-04-03T20:32:43.037952","TLE_LINE2":"2 47634  53.0570  37.3270 0001421  56.1688 303.9436 15.06380707 63565","LAUNCH_DATE":"2021-02-16","INCLINATION":"53.0570","DECAY_DATE":null,"ELEMENT_SET_NO":"999","EPHEMERIS_TYPE":"0","APOAPSIS":"548.257","NORAD_CAT_ID":"47634","RCS_SIZE":"LARGE","GP_ID":"200379271","REF_FRAME":"TEME","RA_OF_ASC_NODE":"37.3270","TIME_SYSTEM":"UTC","FILE":"3386965","CENTER_NAME":"EARTH","OBJECT_TYPE":"PAYLOAD","SITE":"AFETR","REV_AT_EPOCH":"6356","SEMIMAJOR_AXIS":"6925.408","BSTAR":"-0.00007373100000","ECCENTRICITY":"0.00014210","CLASSIFICATION_TYPE":"U","ARG_OF_PERICENTER":"56.1688","COUNTRY_CODE":"US","MEAN_MOTION_DDOT":"0.0000000000000","MEAN_ANOMALY":"303.9436","PERIOD":"95.593","OBJECT_NAME":"STARLINK-2010"},{"OBJECT_NAME":"STARLINK-2012","MEAN_ANOMALY":"117.1510","PERIOD":"95.594","MEAN_MOTION_DDOT":"0.0000000000000","COUNTRY_CODE":"US","ARG_OF_PERICENTER":"74.3808","CLASSIFICATION_TYPE":"U","ECCENTRICITY":"0.00016190","BSTAR":"0.00147150000000","SEMIMAJOR_AXIS":"6925.434","REV_AT_EPOCH":"6439","SITE":"AFETR","OBJECT_TYPE":"PAYLOAD","CENTER_NAME":"EARTH","FILE":"3386561","RCS_SIZE":"LARGE","TIME_SYSTEM":"UTC","GP_ID":"200349036","REF_FRAME":"TEME","RA_OF_ASC_NODE":"301.9607","NORAD_CAT_ID":"47635","APOAPSIS":"548.420","EPHEMERIS_TYPE":"0","DECAY_DATE":null,"ELEMENT_SET_NO":"999","MEAN_MOTION":"15.06372278","PERIAPSIS":"546.177","MEAN_ELEMENT_THEORY":"SGP4","TLE_LINE2":"2 47635  53.0597 301.9607 0001619  74.3808 117.1510 15.06372278 64398","LAUNCH_DATE":"2021-02-16","INCLINATION":"53.0597","EPOCH":"2022-04-03T22:00:00.999936","TLE_LINE1":"1 47635U 21012R   22093.91667824  .00021688  00000-0  14715-2 0  9995","MEAN_MOTION_DOT":"0.00021688","OBJECT_ID":"2021-012R"},{"ARG_OF_PERICENTER":"82.5338","CLASSIFICATION_TYPE":"U","MEAN_MOTION_DDOT":"0.0000000000000","COUNTRY_CODE":"US","OBJECT_NAME":"STARLINK-2013","PERIOD":"95.593","MEAN_ANOMALY":"277.5811","REV_AT_EPOCH":"6384","SITE":"AFETR","SEMIMAJOR_AXIS":"6925.385","BSTAR":"-0.00009324700000","ECCENTRICITY":"0.00014110","APOAPSIS":"548.227","NORAD_CAT_ID":"47636","EPHEMERIS_TYPE":"0","TIME_SYSTEM":"UTC","RA_OF_ASC_NODE":"17.3891","GP_ID":"200378269","REF_FRAME":"TEME","RCS_SIZE":"LARGE","FILE":"3386965","CENTER_NAME":"EARTH","OBJECT_TYPE":"PAYLOAD","MEAN_MOTION_DOT":"-0.00001670","OBJECT_ID":"2021-012S","TLE_LINE1":"1 47636U 21012S   22093.84314931 -.00001670  00000-0 -93247-4 0  9996","TLE_LINE2":"2 47636  53.0564  17.3891 0001411  82.5338 277.5811 15.06388097 63845","LAUNCH_DATE":"2021-02-16","INCLINATION":"53.0564","EPOCH":"2022-04-03T20:14:08.100384","PERIAPSIS":"546.273","MEAN_ELEMENT_THEORY":"SGP4","MEAN_MOTION":"15.06388097","ELEMENT_SET_NO":"999","DECAY_DATE":null},{"DECAY_DATE":null,"ELEMENT_SET_NO":"999","TLE_LINE2":"2 47637  53.0573  17.2196 0001397  52.8870 307.2246 15.06381865 63868","INCLINATION":"53.0573","LAUNCH_DATE":"2021-02-16","EPOCH":"2022-04-03T21:07:12.929664","MEAN_MOTION":"15.06381865","PERIAPSIS":"546.302","MEAN_ELEMENT_THEORY":"SGP4","TLE_LINE1":"1 47637U 21012T   22093.88001076 -.00001445  00000-0 -78180-4 0  9993","MEAN_MOTION_DOT":"-0.00001445","OBJECT_ID":"2021-012T","CENTER_NAME":"EARTH","OBJECT_TYPE":"PAYLOAD","FILE":"3386965","TIME_SYSTEM":"UTC","GP_ID":"200379021","REF_FRAME":"TEME","RA_OF_ASC_NODE":"17.2196","RCS_SIZE":"LARGE","APOAPSIS":"548.237","NORAD_CAT_ID":"47637","EPHEMERIS_TYPE":"0","ECCENTRICITY":"0.00013970","BSTAR":"-0.00007818000000","SEMIMAJOR_AXIS":"6925.404","SITE":"AFETR","REV_AT_EPOCH":"6386","OBJECT_NAME":"STARLINK-2014","PERIOD":"95.593","MEAN_ANOMALY":"307.2246","MEAN_MOTION_DDOT":"0.0000000000000","COUNTRY_CODE":"US","ARG_OF_PERICENTER":"52.8870","CLASSIFICATION_TYPE":"U"},{"EPHEMERIS_TYPE":"0","APOAPSIS":"548.298","NORAD_CAT_ID":"47638","GP_ID":"200379771","REF_FRAME":"TEME","RA_OF_ASC_NODE":"302.2514","TIME_SYSTEM":"UTC","RCS_SIZE":"LARGE","FILE":"3386965","OBJECT_TYPE":"PAYLOAD","CENTER_NAME":"EARTH","OBJECT_ID":"2021-012U","MEAN_MOTION_DOT":"-0.00001927","TLE_LINE1":"1 47638U 21012U   22093.87770509 -.00001927  00000-0 -11051-3 0  9995","EPOCH":"2022-04-03T21:03:53.719776","LAUNCH_DATE":"2021-02-16","TLE_LINE2":"2 47638  53.0502 302.2514 0001527  99.3728 260.7433 15.06391347 64885","INCLINATION":"53.0502","MEAN_MOTION":"15.06391347","PERIAPSIS":"546.183","MEAN_ELEMENT_THEORY":"SGP4","ELEMENT_SET_NO":"999","DECAY_DATE":null,"CLASSIFICATION_TYPE":"U","ARG_OF_PERICENTER":"99.3728","COUNTRY_CODE":"US","MEAN_MOTION_DDOT":"0.0000000000000","MEAN_ANOMALY":"260.7433","PERIOD":"95.593","OBJECT_NAME":"STARLINK-2015","REV_AT_EPOCH":"6488","SITE":"AFETR","SEMIMAJOR_AXIS":"6925.375","BSTAR":"-0.00011051000000","ECCENTRICITY":"0.00015270"},{"SEMIMAJOR_AXIS":"6925.404","SITE":"AFETR","REV_AT_EPOCH":"6332","ECCENTRICITY":"0.00016740","BSTAR":"-0.00025249000000","CLASSIFICATION_TYPE":"U","ARG_OF_PERICENTER":"65.2691","MEAN_ANOMALY":"294.8472","PERIOD":"95.593","OBJECT_NAME":"STARLINK-2016","COUNTRY_CODE":"US","MEAN_MOTION_DDOT":"0.0000000000000","TLE_LINE1":"1 47639U 21012V   22093.79154261 -.00004039  00000-0 -25249-3 0  9999","OBJECT_ID":"2021-012V","MEAN_MOTION_DOT":"-0.00004039","ELEMENT_SET_NO":"999","DECAY_DATE":null,"PERIAPSIS":"546.110","MEAN_MOTION":"15.06381947","MEAN_ELEMENT_THEORY":"SGP4","EPOCH":"2022-04-03T18:59:49.281504","INCLINATION":"53.0573","TLE_LINE2":"2 47639  53.0573  17.6111 0001674  65.2691 294.8472 15.06381947 63322","LAUNCH_DATE":"2021-02-16","RCS_SIZE":"LARGE","GP_ID":"200349041","RA_OF_ASC_NODE":"17.6111","REF_FRAME":"TEME","TIME_SYSTEM":"UTC","EPHEMERIS_TYPE":"0","APOAPSIS":"548.428","NORAD_CAT_ID":"47639","CENTER_NAME":"EARTH","OBJECT_TYPE":"PAYLOAD","FILE":"3386561"}];
